{
    "links": {
        "self": "http://www.neowsapp.com/rest/v1/neo/3596677?api_key=iIulBulltgU6a56xZRHN4H3l9WmuAYTsLGpBGhQ2"
    },
    "id": "3596677",
    "neo_reference_id": "3596677",
    "name": "(2012 BC77)",
    "designation": "2012 BC77",
    "nasa_jpl_url": "http://ssd.jpl.nasa.gov/sbdb.cgi?sstr=3596677",
    "absolute_magnitude_h": 25.1,
    "estimated_diameter": {
        "kilometers": {
            "estimated_diameter_min": 0.0253837029,
            "estimated_diameter_max": 0.0567596853
        },
        "meters": {
            "estimated_diameter_min": 25.3837029364,
            "estimated_diameter_max": 56.7596852866
        },
        "miles": {
            "estimated_diameter_min": 0.0157726969,
            "estimated_diameter_max": 0.0352688224
        },
        "feet": {
            "estimated_diameter_min": 83.279867942,
            "estimated_diameter_max": 186.2194458756
        }
    },
    "is_potentially_hazardous_asteroid": false,
    "close_approach_data": [
        {
            "close_approach_date": "2012-02-08",
            "close_approach_date_full": "2012-Feb-08 03:24",
            "epoch_date_close_approach": 1328671440000,
            "relative_velocity": {
                "kilometers_per_second": "16.4607193527",
                "kilometers_per_hour": "59258.589669576",
                "miles_per_hour": "36820.9831199652"
            },
            "miss_distance": {
                "astronomical": "0.0329734697",
                "lunar": "12.8266797133",
                "kilometers": "4932760.833629539",
                "miles": "3065075.4525800782"
            },
            "orbiting_body": "Earth"
        }
    ],
    "orbital_data": {
        "orbit_id": "9",
        "orbit_determination_date": "2017-04-06 08:51:11",
        "first_observation_date": "2012-01-25",
        "last_observation_date": "2012-02-03",
        "data_arc_in_days": 9,
        "observations_used": 26,
        "orbit_uncertainty": "8",
        "minimum_orbit_intersection": ".0113909",
        "jupiter_tisserand_invariant": "3.718",
        "epoch_osculation": "2455954.5",
        "eccentricity": ".5950453095922134",
        "semi_major_axis": "1.890546564621434",
        "inclination": "4.601808627242766",
        "ascending_node_longitude": "149.1264888213019",
        "orbital_period": "949.4661690927622",
        "perihelion_distance": ".7655856987777773",
        "perihelion_argument": "58.03742024841907",
        "aphelion_distance": "3.01550743046509",
        "perihelion_time": "2456008.804733014290",
        "mean_anomaly": "339.4097941332395",
        "mean_motion": ".3791604290061105",
        "equinox": "J2000",
        "orbit_class": {
            "orbit_class_type": "APO",
            "orbit_class_description": "Near-Earth asteroid orbits which cross the Earth’s orbit similar to that of 1862 Apollo",
            "orbit_class_range": "a (semi-major axis) > 1.0 AU; q (perihelion) < 1.017 AU"
        }
    },
    "is_sentry_object": false
}